NORAD_CAT_ID,OBJECT_NAME,OBJECT_TYPE,EPOCH,MEAN_MOTION,ECCENTRICITY,INCLINATION,RA_OF_ASC_NODE,ARG_OF_PERICENTER,MEAN_ANOMALY,BSTAR,MEAN_MOTION_DOT,MEAN_MOTION_DDOT,TLE_LINE0,TLE_LINE1,TLE_LINE2,SEMIMAJOR_AXIS,PERIOD,APOGEE,PERIGEE,DECAYED
49729.0,STARLINK-3251,PAYLOAD,2024-05-07 11:34:00,15.08846782,0.000236,53.2173,292.1737,80.8602,279.2657,0.00020642,2.999e-05,0.0,0 STARLINK-3251,1 49729U 21115F   24128.48194722  .00002999  00000-0  20642-3 0  9991,2 49729  53.2173 292.1737 0002360  80.8602 279.2657 15.08846782135174,6917.86,95.437,541.357,538.092,0.0
49729.0,STARLINK-3251,PAYLOAD,2024-05-07 14:44:46,15.08827889,0.0001244,53.2174,291.5794,89.3121,270.8014,-0.00015796,-2.8e-05,0.0,0 STARLINK-3251,1 49729U 21115F   24128.61443224 -.00002800  00000-0 -15796-3 0  9997,2 49729  53.2174 291.5794 0001244  89.3121 270.8014 15.08827889134081,6917.917,95.438,540.643,538.922,0.0
49729.0,STARLINK-3251,PAYLOAD,2024-05-07 17:55:33,15.08831243,0.0001279,53.218,290.9869,96.2152,263.8986,-3.1589e-05,-7.9e-06,0.0,0 STARLINK-3251,1 49729U 21115F   24128.74691343 -.00000790  00000-0 -31589-4 0  9993,2 49729  53.2180 290.9869 0001279  96.2152 263.8986 15.08831243135218,6917.907,95.438,540.657,538.887,0.0
49729.0,STARLINK-3251,PAYLOAD,2024-05-08 03:27:51,15.08840336,0.0001404,53.2188,289.2026,97.1573,262.9579,0.00011166,1.49e-05,0.0,0 STARLINK-3251,1 49729U 21115F   24129.14435088  .00001490  00000-0  11166-3 0  9994,2 49729  53.2188 289.2026 0001404  97.1573 262.9579 15.08840336135276,6917.879,95.438,540.716,538.773,0.0
49729.0,STARLINK-3251,PAYLOAD,2024-05-08 14:35:34,15.0883387,0.0001286,53.219,287.1197,91.2253,268.8886,6.2386e-05,7.05e-06,0.0,0 STARLINK-3251,1 49729U 21115F   24129.60803482  .00000705  00000-0  62386-4 0  9991,2 49729  53.2190 287.1197 0001286  91.2253 268.8886 15.08833870134239,6917.899,95.438,540.654,538.874,0.0
49729.0,STARLINK-3251,PAYLOAD,2024-05-08 17:46:20,15.08837326,0.0001286,53.2172,286.5265,99.3617,260.752,0.00011836,1.596e-05,0.0,0 STARLINK-3251,1 49729U 21115F   24129.74051448  .00001596  00000-0  11836-3 0  9995,2 49729  53.2172 286.5265 0001286  99.3617 260.7520 15.08837326134259,6917.889,95.438,540.643,538.864,0.0
49729.0,STARLINK-3251,PAYLOAD,2024-05-09 14:26:21,15.08842678,0.0001012,53.215,282.6593,88.4283,271.6825,0.00031284,4.695e-05,0.0,0 STARLINK-3251,1 49729U 21115F   24130.60163467  .00004695  00000-0  31284-3 0  9999,2 49729  53.2150 282.6593 0001012  88.4283 271.6825 15.08842678134380,6917.872,95.437,540.437,539.037,0.0
49729.0,STARLINK-3251,PAYLOAD,2024-05-09 17:37:07,15.08846209,9.79e-05,53.2156,282.0647,87.4583,272.6521,0.00034327,5.18e-05,0.0,0 STARLINK-3251,1 49729U 21115F   24130.73411370  .00005180  00000-0  34327-3 0  9993,2 49729  53.2156 282.0647 0000979  87.4583 272.6521 15.08846209134404,6917.861,95.437,540.404,539.049,0.0
49729.0,STARLINK-3251,PAYLOAD,2024-05-10 03:09:25,15.08856638,9.31e-05,53.2154,280.2805,87.8308,272.279,0.00051945,7.993e-05,0.0,0 STARLINK-3251,1 49729U 21115F   24131.13154977  .00007993  00000-0  51945-3 0  9994,2 49729  53.2154 280.2805 0000931  87.8308 272.2790 15.08856638135575,6917.83,95.437,540.339,539.05,0.0
49729.0,STARLINK-3251,PAYLOAD,2024-05-10 19:03:17,15.08847939,9.93e-05,53.2153,277.3049,90.4349,269.6757,0.00040547,6.172e-05,0.0,0 STARLINK-3251,1 49729U 21115F   24131.79395323  .00006172  00000-0  40547-3 0  9992,2 49729  53.2153 277.3049 0000993  90.4349 269.6757 15.08847939135672,6917.856,95.437,540.408,539.034,0.0
49729.0,STARLINK-3251,PAYLOAD,2024-05-11 09:21:43,15.08925315,0.0001049,53.2168,274.6269,103.3597,256.7512,0.0024033,0.00038258,0.0,0 STARLINK-3251,1 49729U 21115F   24132.39008545  .00038258  00000-0  24033-2 0  9997,2 49729  53.2168 274.6269 0001049 103.3597 256.7512 15.08925315135765,6917.62,95.432,540.21,538.759,0.0
49729.0,STARLINK-3251,PAYLOAD,2024-05-11 20:29:27,15.08789394,7.03e-05,53.2164,272.5443,98.2945,261.8127,-0.0016177,-0.00025905,0.0,0 STARLINK-3251,1 49729U 21115F   24132.85378657 -.00025905  00000-0 -16177-2 0  9999,2 49729  53.2164 272.5443 0000703  98.2945 261.8127 15.08789394134726,6918.035,95.441,540.386,539.414,0.0
49729.0,STARLINK-3251,PAYLOAD,2024-05-12 13:58:45,15.08778765,0.0001119,53.2178,269.2767,100.7948,259.317,0.00095633,0.00014939,0.0,0 STARLINK-3251,1 49729U 21115F   24133.58246796  .00014939  00000-0  95633-3 0  9996,2 49729  53.2178 269.2767 0001119 100.7948 259.3170 15.08778765134839,6918.068,95.441,540.707,539.158,0.0
49729.0,STARLINK-3251,PAYLOAD,2024-05-12 15:34:08,15.08786588,0.0001056,53.2169,268.9798,120.4681,239.6415,0.0012671,0.00019906,0.0,0 STARLINK-3251,1 49729U 21115F   24133.64870887  .00019906  00000-0  12671-2 0  9996,2 49729  53.2169 268.9798 0001056 120.4681 239.6415 15.08786588135951,6918.044,95.441,540.639,539.178,0.0
49729.0,STARLINK-3251,PAYLOAD,2024-05-13 12:14:08,15.08878661,8.64e-05,53.2168,265.1136,106.397,253.7117,0.0015762,0.00024913,0.0,0 STARLINK-3251,1 49729U 21115F   24134.50981696  .00024913  00000-0  15762-2 0  9991,2 49729  53.2168 265.1136 0000864 106.3970 253.7117 15.08878661136080,6917.762,95.435,540.225,539.03,0.0
49729.0,STARLINK-3251,PAYLOAD,2024-05-14 12:04:53,15.08861196,7.9e-05,53.2171,260.6549,102.9222,257.1859,-0.0011462,-0.00018493,0.0,0 STARLINK-3251,1 49729U 21115F   24135.50339598 -.00018493  00000-0 -11462-2 0  9991,2 49729  53.2171 260.6549 0000790 102.9222 257.1859 15.08861196136235,6917.816,95.436,540.227,539.134,0.0
49729.0,STARLINK-3251,PAYLOAD,2024-05-15 00:47:58,15.08872377,8.43e-05,53.2175,258.2746,93.8477,266.2611,0.00092222,0.00014433,0.0,0 STARLINK-3251,1 49729U 21115F   24136.03331480  .00014433  00000-0  92222-3 0  9994,2 49729  53.2175 258.2746 0000843  93.8477 266.2611 15.08872377136319,6917.781,95.436,540.23,539.063,0.0
49729.0,STARLINK-3251,PAYLOAD,2024-05-15 11:55:40,15.0885554,0.0001464,53.2183,256.1944,105.2552,254.8602,0.00040376,6.146e-05,0.0,0 STARLINK-3251,1 49729U 21115F   24136.49699420  .00006146  00000-0  40376-3 0  9990,2 49729  53.2183 256.1944 0001464 105.2552 254.8602 15.08855540136380,6917.833,95.437,540.711,538.685,0.0
49729.0,STARLINK-3251,PAYLOAD,2024-05-15 13:31:03,15.08858549,0.0001268,53.217,255.8968,98.1279,261.9857,0.00053755,8.282e-05,0.0,0 STARLINK-3251,1 49729U 21115F   24136.56323334  .00008282  00000-0  53755-3 0  9994,2 49729  53.2170 255.8968 0001268  98.1279 261.9857 15.08858549135287,6917.824,95.436,540.566,538.812,0.0
49729.0,STARLINK-3251,PAYLOAD,2024-05-15 18:17:12,15.08867872,0.0001186,53.2167,255.0015,93.3542,266.7586,0.00098601,0.00015451,0.0,0 STARLINK-3251,1 49729U 21115F   24136.76194938  .00015451  00000-0  98601-3 0  9997,2 49729  53.2167 255.0015 0001186  93.3542 266.7586 15.08867872135312,6917.795,95.436,540.481,538.84,0.0
49729.0,STARLINK-3251,PAYLOAD,2024-05-16 00:38:44,15.08877894,0.000112,53.2164,253.8128,75.9393,284.1723,0.001172,0.00018433,0.0,0 STARLINK-3251,1 49729U 21115F   24137.02690439  .00018433  00000-0  11720-2 0  9993,2 49729  53.2164 253.8128 0001120  75.9393 284.1723 15.08877894136467,6917.765,95.435,540.404,538.855,0.0
49729.0,STARLINK-3251,PAYLOAD,2024-05-16 11:46:27,15.08845369,0.0001104,53.2171,251.7332,105.7412,254.3701,0.00043018,6.566e-05,0.0,0 STARLINK-3251,1 49729U 21115F   24137.49059112  .00006566  00000-0  43018-3 0  9991,2 49729  53.2171 251.7332 0001104 105.7412 254.3701 15.08845369136530,6917.864,95.437,540.493,538.965,0.0
49729.0,STARLINK-3251,PAYLOAD,2024-05-17 00:29:31,15.08882993,0.0001438,53.2161,249.3515,71.5121,288.6027,0.0029717,0.00047381,0.0,0 STARLINK-3251,1 49729U 21115F   24138.02050838  .00047381  00000-0  29717-2 0  9996,2 49729  53.2161 249.3515 0001438  71.5121 288.6027 15.08882993136616,6917.749,95.435,540.609,538.619,0.0
49729.0,STARLINK-3251,PAYLOAD,2024-05-17 11:37:15,15.08796608,0.000116,53.2157,247.272,101.2539,258.8584,0.0019675,0.00031126,0.0,0 STARLINK-3251,1 49729U 21115F   24138.48420349  .00031126  00000-0  19675-2 0  9996,2 49729  53.2157 247.2720 0001160 101.2539 258.8584 15.08796608136683,6918.013,95.44,540.681,539.076,0.0
49729.0,STARLINK-3251,PAYLOAD,2024-05-18 00:20:20,15.08877765,0.0001551,53.2164,244.8929,91.4588,268.6582,0.0040219,0.00064372,0.0,0 STARLINK-3251,1 49729U 21115F   24139.01412321  .00064372  00000-0  40219-2 0  9994,2 49729  53.2164 244.8929 0001551  91.4588 268.6582 15.08877765136763,6917.765,95.435,540.703,538.557,0.0
49729.0,STARLINK-3251,PAYLOAD,2024-05-18 13:03:25,15.08861069,0.0001539,53.215,242.5131,103.6612,256.4551,0.003416,0.0005453,0.0,0 STARLINK-3251,1 49729U 21115F   24139.54404416  .00054530  00000-0  34160-2 0  9991,2 49729  53.2150 242.5131 0001539 103.6612 256.4551 15.08861069136848,6917.816,95.436,540.746,538.616,0.0
49729.0,STARLINK-3251,PAYLOAD,2024-05-18 14:38:48,15.08870744,0.0001524,53.2152,242.2158,103.0608,257.0554,0.0035787,0.00057178,0.0,0 STARLINK-3251,1 49729U 21115F   24139.61028291  .00057178  00000-0  35787-2 0  9999,2 49729  53.2152 242.2158 0001524 103.0608 257.0554 15.08870744135747,6917.786,95.436,540.706,538.597,0.0
49729.0,STARLINK-3251,PAYLOAD,2024-05-19 12:54:12,15.0880302,0.000141,53.2157,238.0522,75.0293,285.0855,0.003447,0.00054943,0.0,0 STARLINK-3251,1 49729U 21115F   24140.53764986  .00054943  00000-0  34470-2 0  9995,2 49729  53.2157 238.0522 0001410  75.0293 285.0855 15.08803020135885,6917.993,95.44,540.834,538.883,0.0
49729.0,STARLINK-3251,PAYLOAD,2024-05-20 12:45:00,15.08864303,0.0001513,53.2156,233.5924,71.0226,289.093,0.0021393,0.00033946,0.0,0 STARLINK-3251,1 49729U 21115F   24141.53125561  .00033946  00000-0  21393-2 0  9996,2 49729  53.2156 233.5924 0001513  71.0226 289.0930 15.08864303137146,6917.806,95.436,540.718,538.624,0.0
49729.0,STARLINK-3251,PAYLOAD,2024-05-21 12:35:47,15.08844671,0.0001113,53.2164,229.1235,98.9019,261.2099,6.3044e-05,7.16e-06,0.0,0 STARLINK-3251,1 49729U 21115F   24142.52485146  .00000716  00000-0  63044-4 0  9994,2 49729  53.2164 229.1235 0001113  98.9019 261.2099 15.08844671137295,6917.866,95.437,540.501,538.961,0.0
